[{"OBJECT_NAME":"EOSSAT-1","OBJECT_ID":"2023-001AW","EPOCH":"2026-03-09T17:40:07.010400","MEAN_MOTION":15.32339828,"ECCENTRICITY":0.00112629,"INCLINATION":97.3357,"RA_OF_ASC_NODE":130.2294,"ARG_OF_PERICENTER":110.3168,"MEAN_ANOMALY":249.9285,"EPHEMERIS_TYPE":0,"CLASSIFICATION_TYPE":"U","NORAD_CAT_ID":55053,"ELEMENT_SET_NO":999,"REV_AT_EPOCH":17668,"BSTAR":0.00024844399,"MEAN_MOTION_DOT":7.695e-5,"MEAN_MOTION_DDOT":0},{"OBJECT_NAME":"STARLINK-33570","OBJECT_ID":"2025-015U","EPOCH":"2026-03-09T22:47:22.626816","MEAN_MOTION":15.30202304,"ECCENTRICITY":0.00011062,"INCLINATION":53.1613,"RA_OF_ASC_NODE":321.0522,"ARG_OF_PERICENTER":124.8392,"MEAN_ANOMALY":235.2713,"EPHEMERIS_TYPE":0,"CLASSIFICATION_TYPE":"U","NORAD_CAT_ID":62776,"ELEMENT_SET_NO":999,"REV_AT_EPOCH":6446,"BSTAR":0.00057479824,"MEAN_MOTION_DOT":0.00016704,"MEAN_MOTION_DDOT":0}]
